{"type":"FeatureCollection","features":[{"type":"Feature","geometry":{"type":"Point","coordinates":[8.152227133446932,46.55556009482262]},"properties":{"name":"Aarbiwak SAC","ele":2731,"sac_id":"2147000001"}},{"type":"Feature","geometry":{"type":"Point","coordinates":[8.995795768778601,46.499101723184516]},"properties":{"name":"Capanna Adula CAS","ele":2012,"sac_id":"2147000002"}},{"type":"Feature","geometry":{"type":"Point","coordinates":[7.454122194176062,45.94142657719089]},"properties":{"name":"Bivouac de l'Aiguillette à la Singla CAS","ele":3179,"sac_id":"2147000251"}},{"type":"Feature","geometry":{"type":"Point","coordinates":[8.46351866890344,46.60891403150513]},"properties":{"name":"Albert-Heim-Hütte SAC","ele":2542,"sac_id":"2147000006"}},{"type":"Feature","geometry":{"type":"Point","coordinates":[9.655312224759838,46.33007168537605]},"properties":{"name":"Capanna da l'Albigna CAS","ele":2336,"sac_id":"2147000007"}},{"type":"Feature","geometry":{"type":"Point","coordinates":[8.007701844270615,46.10767094805757]},"properties":{"name":"Almagellerhütte SAC","ele":2894,"sac_id":"2147000008"}},{"type":"Feature","geometry":{"type":"Point","coordinates":[8.589291186607497,46.271294152298395]},"properties":{"name":"Capanna Alzasca CAS","ele":1734,"sac_id":"2147000011"}},{"type":"Feature","geometry":{"type":"Point","coordinates":[7.665175429704847,46.03133551496865]},"properties":{"name":"Arbenbiwak SAC","ele":3225,"sac_id":"2147000016"}},{"type":"Feature","geometry":{"type":"Point","coordinates":[7.679429273266438,46.10093151367261]},"properties":{"name":"Cabane Arpitettaz CAS","ele":2786,"sac_id":"2147000018"}},{"type":"Feature","geometry":{"type":"Point","coordinates":[7.6895700670756,46.451289869155836]},"properties":{"name":"Balmhornhütte SAC","ele":1956,"sac_id":"2147000024"}},{"type":"Feature","geometry":{"type":"Point","coordinates":[7.889795835515115,46.39507797978951]},"properties":{"name":"Baltschiederklause SAC","ele":2783,"sac_id":"2147000025"}},{"type":"Feature","geometry":{"type":"Point","coordinates":[8.514128991438422,46.439547987678935]},"properties":{"name":"Capanna Basodino (Robiei) CAS","ele":1856,"sac_id":"2147000027"}},{"type":"Feature","geometry":{"type":"Point","coordinates":[8.020481790207612,46.5667540083835]},"properties":{"name":"Berglihütte SAC","ele":3299,"sac_id":"2147000029"}},{"type":"Feature","geometry":{"type":"Point","coordinates":[8.484887206314704,46.65744386199366]},"properties":{"name":"Bergseehütte SAC","ele":2370,"sac_id":"2147000030"}},{"type":"Feature","geometry":{"type":"Point","coordinates":[7.52772013913982,46.00606995875796]},"properties":{"name":"Cabane de Bertol CAS","ele":3311,"sac_id":"2147000031"}},{"type":"Feature","geometry":{"type":"Point","coordinates":[8.291885562953693,46.374684559963995]},"properties":{"name":"Binntalhütte SAC","ele":2267,"sac_id":"2147000035"}},{"type":"Feature","geometry":{"type":"Point","coordinates":[7.771664966896341,46.51009096493476]},"properties":{"name":"Blüemlisalphütte SAC","ele":2840,"sac_id":"2147000036"}},{"type":"Feature","geometry":{"type":"Point","coordinates":[7.849805945092889,46.144518843992664]},"properties":{"name":"Bordierhütte SAC","ele":2886,"sac_id":"2147000038"}},{"type":"Feature","geometry":{"type":"Point","coordinates":[7.530501545422728,45.97089561597806]},"properties":{"name":"Refuge des Bouquetins CAS","ele":2980,"sac_id":"2147000041"}},{"type":"Feature","geometry":{"type":"Point","coordinates":[9.925083816284387,46.41514425831524]},"properties":{"name":"Chamanna da Boval CAS","ele":2495,"sac_id":"2147000042"}},{"type":"Feature","geometry":{"type":"Point","coordinates":[7.935101669900964,46.06006647664945]},"properties":{"name":"Britanniahütte SAC","ele":3030,"sac_id":"2147000046"}},{"type":"Feature","geometry":{"type":"Point","coordinates":[8.282681586866365,46.587044134650036]},"properties":{"name":"Bächlitalhütte SAC","ele":2328,"sac_id":"2147000021"}},{"type":"Feature","geometry":{"type":"Point","coordinates":[8.695215449329597,46.571649261297885]},"properties":{"name":"Capanna Cadlimo CAS","ele":2570,"sac_id":"2147000053"}},{"type":"Feature","geometry":{"type":"Point","coordinates":[9.48222501415875,46.883007252550144]},"properties":{"name":"Calandahütte SAC","ele":2073,"sac_id":"2147000054"}},{"type":"Feature","geometry":{"type":"Point","coordinates":[8.732738937863969,46.444193304660516]},"properties":{"name":"Capanna Campo Tencia CAS","ele":2140,"sac_id":"2147000055"}},{"type":"Feature","geometry":{"type":"Point","coordinates":[9.827269787807184,47.006992357185354]},"properties":{"name":"Carschinahütte SAC","ele":2236,"sac_id":"2147000057"}},{"type":"Feature","geometry":{"type":"Point","coordinates":[8.814231179548878,46.74247311692063]},"properties":{"name":"Camona da Cavardiras CAS","ele":2649,"sac_id":"2147000059"}},{"type":"Feature","geometry":{"type":"Point","coordinates":[6.947062299321742,46.179272978723006]},"properties":{"name":"Refuge de Chalin CAS","ele":2595,"sac_id":"2147000060"}},{"type":"Feature","geometry":{"type":"Point","coordinates":[7.380914525049346,45.939181359107124]},"properties":{"name":"Cabane de Chanrion CAS","ele":2462,"sac_id":"2147000061"}},{"type":"Feature","geometry":{"type":"Point","coordinates":[8.440074487368264,46.6717006609523]},"properties":{"name":"Chelenalphütte SAC","ele":2350,"sac_id":"2147000062"}},{"type":"Feature","geometry":{"type":"Point","coordinates":[8.935791560383953,46.8595237521071]},"properties":{"name":"Claridenhütte SAC","ele":2453,"sac_id":"2147000063"}},{"type":"Feature","geometry":{"type":"Point","coordinates":[9.835467730694976,46.383684654726444]},"properties":{"name":"Chamanna Coaz CAS","ele":2610,"sac_id":"2147000065"}},{"type":"Feature","geometry":{"type":"Point","coordinates":[8.409994364013038,46.467026036356344]},"properties":{"name":"Capanna Corno Gries CAS","ele":2338,"sac_id":"2147000068"}},{"type":"Feature","geometry":{"type":"Point","coordinates":[8.030222866088442,46.04477373459599]},"properties":{"name":"Cresta-Biwak SAC","ele":3032,"sac_id":"2147425514"}},{"type":"Feature","geometry":{"type":"Point","coordinates":[8.526488194841754,46.47181756521863]},"properties":{"name":"Capanna Cristallina CAS","ele":2575,"sac_id":"2147000069"}},{"type":"Feature","geometry":{"type":"Point","coordinates":[9.359016881881692,46.593332231151805]},"properties":{"name":"Cufercalhütte SAC","ele":2385,"sac_id":"2147000070"}},{"type":"Feature","geometry":{"type":"Point","coordinates":[8.457733643434885,46.644825216407405]},"properties":{"name":"Dammahütte SAC","ele":2439,"sac_id":"2147000071"}},{"type":"Feature","geometry":{"type":"Point","coordinates":[7.600955422769689,46.020201573046194]},"properties":{"name":"Cabane de la Dent Blanche CAS","ele":3507,"sac_id":"2147000073"}},{"type":"Feature","geometry":{"type":"Point","coordinates":[7.60709065873145,46.04187172916108]},"properties":{"name":"Bivouac au Col de la Dent Blanche CAS","ele":3540,"sac_id":"2147000074"}},{"type":"Feature","geometry":{"type":"Point","coordinates":[7.215379395896926,46.338718120067824]},"properties":{"name":"Cabane des Diablerets CAS","ele":2486,"sac_id":"2147000076"}},{"type":"Feature","geometry":{"type":"Point","coordinates":[7.417734341789726,46.01104987163189]},"properties":{"name":"Cabane des Dix CAS","ele":2928,"sac_id":"2147000078"}},{"type":"Feature","geometry":{"type":"Point","coordinates":[7.697418356251996,46.486895125436476]},"properties":{"name":"Doldenhornhütte SAC","ele":1915,"sac_id":"2147000079"}},{"type":"Feature","geometry":{"type":"Point","coordinates":[7.068955105079339,45.92723315516454]},"properties":{"name":"Bivouac du Dolent-La Maye CAS","ele":2667,"sac_id":"2147000080"}},{"type":"Feature","geometry":{"type":"Point","coordinates":[7.817613895345214,46.10266665031923]},"properties":{"name":"Domhütte SAC","ele":2940,"sac_id":"2147000081"}},{"type":"Feature","geometry":{"type":"Point","coordinates":[8.169442180893821,46.65519787768667]},"properties":{"name":"Dossenhütte SAC","ele":2663,"sac_id":"2147000082"}},{"type":"Feature","geometry":{"type":"Point","coordinates":[9.69185233762513,46.61875128765362]},"properties":{"name":"Chamonas d'Ela CAS","ele":2252,"sac_id":"2147000086"}},{"type":"Feature","geometry":{"type":"Point","coordinates":[9.551603716029904,47.038769134845744]},"properties":{"name":"Enderlinhütte SAC","ele":1501,"sac_id":"2147000087"}},{"type":"Feature","geometry":{"type":"Point","coordinates":[9.902899482012904,46.611380144059964]},"properties":{"name":"Chamanna d'Es-cha CAS","ele":2594,"sac_id":"2147000090"}},{"type":"Feature","geometry":{"type":"Point","coordinates":[8.72047140981515,46.718104187137264]},"properties":{"name":"Etzlihütte SAC","ele":2052,"sac_id":"2147000091"}},{"type":"Feature","geometry":{"type":"Point","coordinates":[9.964699319878353,46.868958483674874]},"properties":{"name":"Fergenhütte SAC","ele":2141,"sac_id":"2147000094"}},{"type":"Feature","geometry":{"type":"Point","coordinates":[8.114641838745705,46.52193789553533]},"properties":{"name":"Finsteraarhornhütte SAC","ele":3048,"sac_id":"2147000095"}},{"type":"Feature","geometry":{"type":"Point","coordinates":[9.709494541304924,46.33183257758561]},"properties":{"name":"Capanna del Forno CAS","ele":2574,"sac_id":"2147000100"}},{"type":"Feature","geometry":{"type":"Point","coordinates":[8.95006324908638,46.82127870210424]},"properties":{"name":"Fridolinshütten SAC","ele":2111,"sac_id":"2147000101"}},{"type":"Feature","geometry":{"type":"Point","coordinates":[7.7418106636902015,46.48363711389631]},"properties":{"name":"Fründenhütte SAC","ele":2562,"sac_id":"2147000102"}},{"type":"Feature","geometry":{"type":"Point","coordinates":[8.216558772701967,46.62378701796229]},"properties":{"name":"Gaulihütte SAC","ele":2205,"sac_id":"2147000111"}},{"type":"Feature","geometry":{"type":"Point","coordinates":[8.342751143376002,46.63122180483565]},"properties":{"name":"Gelmerhütte SAC","ele":2412,"sac_id":"2147000112"}},{"type":"Feature","geometry":{"type":"Point","coordinates":[7.339098041603504,46.3695706591559]},"properties":{"name":"Geltenhütte SAC","ele":2002,"sac_id":"2147000113"}},{"type":"Feature","geometry":{"type":"Point","coordinates":[8.875021651548222,46.91689285625401]},"properties":{"name":"Glattalphütte SAC","ele":1896,"sac_id":"2147000117"}},{"type":"Feature","geometry":{"type":"Point","coordinates":[8.096710560658648,46.625081972625495]},"properties":{"name":"Glecksteinhütte SAC","ele":2316,"sac_id":"2147000118"}},{"type":"Feature","geometry":{"type":"Point","coordinates":[8.963426150533202,47.00157961270817]},"properties":{"name":"Glärnischhütte SAC","ele":1990,"sac_id":"2147000116"}},{"type":"Feature","geometry":{"type":"Point","coordinates":[8.446747433893059,46.77015031444966]},"properties":{"name":"Grassenbiwak SAC","ele":2647,"sac_id":"2147000120"}},{"type":"Feature","geometry":{"type":"Point","coordinates":[9.960531244945985,46.71010955423595]},"properties":{"name":"Chamanna da Grialetsch CAS","ele":2542,"sac_id":"2147000122"}},{"type":"Feature","geometry":{"type":"Point","coordinates":[8.941374250430096,46.810506899896666]},"properties":{"name":"Grünhornhütte SAC","ele":2448,"sac_id":"2147000126"}},{"type":"Feature","geometry":{"type":"Point","coordinates":[7.810158323373054,46.512724551138746]},"properties":{"name":"Gspaltenhornhütte SAC","ele":2455,"sac_id":"2147000127"}},{"type":"Feature","geometry":{"type":"Point","coordinates":[7.974400109243023,46.56275213861845]},"properties":{"name":"Guggihütte SAC","ele":2791,"sac_id":"2147000128"}},{"type":"Feature","geometry":{"type":"Point","coordinates":[7.960255033124015,46.47528871086383]},"properties":{"name":"Hollandiahütte SAC","ele":3238,"sac_id":"2147000135"}},{"type":"Feature","geometry":{"type":"Point","coordinates":[9.422314791880753,47.25477220850139]},"properties":{"name":"Hundsteinhütte SAC","ele":1554,"sac_id":"2147000138"}},{"type":"Feature","geometry":{"type":"Point","coordinates":[8.818890370138494,46.801795788358945]},"properties":{"name":"Hüfihütte SAC","ele":2334,"sac_id":"2147000137"}},{"type":"Feature","geometry":{"type":"Point","coordinates":[9.724427576936764,46.52925047205528]},"properties":{"name":"Chamanna Jenatsch CAS","ele":2652,"sac_id":"2147000139"}},{"type":"Feature","geometry":{"type":"Point","coordinates":[9.875206636958746,46.64514112946739]},"properties":{"name":"Kesch-Hütte SAC","ele":2625,"sac_id":"2147000140"}},{"type":"Feature","geometry":{"type":"Point","coordinates":[8.053225672714277,46.50058826566172]},"properties":{"name":"Konkordiahütte SAC","ele":2850,"sac_id":"2147000142"}},{"type":"Feature","geometry":{"type":"Point","coordinates":[8.575430079721531,46.80006923585693]},"properties":{"name":"Kröntenhütte SAC","ele":1903,"sac_id":"2147000143"}},{"type":"Feature","geometry":{"type":"Point","coordinates":[8.045322550922934,46.16450853832449]},"properties":{"name":"Laggin Biwak SAC","ele":2428,"sac_id":"2147000144"}},{"type":"Feature","geometry":{"type":"Point","coordinates":[8.222308536882998,46.57004143464891]},"properties":{"name":"Lauteraarhütte SAC","ele":2393,"sac_id":"2147000148"}},{"type":"Feature","geometry":{"type":"Point","coordinates":[9.08017393782295,46.92736088582853]},"properties":{"name":"Leglerhütte SAC","ele":2273,"sac_id":"2147000149"}},{"type":"Feature","geometry":{"type":"Point","coordinates":[8.601145289945157,46.783608019268065]},"properties":{"name":"Leutschachhütte SAC","ele":2208,"sac_id":"2147000153"}},{"type":"Feature","geometry":{"type":"Point","coordinates":[8.692815302784187,46.93522710355998]},"properties":{"name":"Lidernenhütte SAC","ele":1727,"sac_id":"2147000154"}},{"type":"Feature","geometry":{"type":"Point","coordinates":[10.08286817643206,46.7794320533694]},"properties":{"name":"Chamanna dal Linard CAS","ele":2327,"sac_id":"2147000155"}},{"type":"Feature","geometry":{"type":"Point","coordinates":[10.334477039829855,46.76558411184593]},"properties":{"name":"Chamonna Lischana CAS","ele":2500,"sac_id":"2147000156"}},{"type":"Feature","geometry":{"type":"Point","coordinates":[7.59970515524953,46.47457111005224]},"properties":{"name":"Lohnerhütte SAC","ele":2171,"sac_id":"2147000157"}},{"type":"Feature","geometry":{"type":"Point","coordinates":[7.574520602171791,46.400299920231795]},"properties":{"name":"Lämmerenhütte SAC","ele":2507,"sac_id":"2147000145"}},{"type":"Feature","geometry":{"type":"Point","coordinates":[9.04174221646617,46.5415605449126]},"properties":{"name":"Länta-Hütte SAC","ele":2090,"sac_id":"2147000147"}},{"type":"Feature","geometry":{"type":"Point","coordinates":[8.690064598134096,46.62532642607717]},"properties":{"name":"Camona da Maighels CAS","ele":2310,"sac_id":"2147000161"}},{"type":"Feature","geometry":{"type":"Point","coordinates":[9.188313517626419,46.89264871268596]},"properties":{"name":"Martinsmadhütte SAC","ele":2002,"sac_id":"2147000167"}},{"type":"Feature","geometry":{"type":"Point","coordinates":[8.91374917517587,46.6405976794498]},"properties":{"name":"Medelserhütte SAC","ele":2524,"sac_id":"2147000168"}},{"type":"Feature","geometry":{"type":"Point","coordinates":[7.865808723415244,46.07422134648449]},"properties":{"name":"Mischabeljochbiwak SAC","ele":3855,"sac_id":"2147000172"}},{"type":"Feature","geometry":{"type":"Point","coordinates":[8.023815982910412,46.46490390195239]},"properties":{"name":"Ehemaliges Mittelaletschbiwak","ele":3013,"sac_id":"2147000173"}},{"type":"Feature","geometry":{"type":"Point","coordinates":[7.595475634015873,46.09082401582343]},"properties":{"name":"Cabane de Moiry CAS","ele":2825,"sac_id":"2147000177"}},{"type":"Feature","geometry":{"type":"Point","coordinates":[7.281064436276725,46.08353400722492]},"properties":{"name":"Cabane du Mont Fort CAS","ele":2457,"sac_id":"2147000179"}},{"type":"Feature","geometry":{"type":"Point","coordinates":[8.080375518495778,46.26075088456052]},"properties":{"name":"Monte-Leone-Hütte SAC","ele":2848,"sac_id":"2147000181"}},{"type":"Feature","geometry":{"type":"Point","coordinates":[7.814568072843179,45.9568766773993]},"properties":{"name":"Monte-Rosa-Hütte SAC","ele":2883,"sac_id":"2147000182"}},{"type":"Feature","geometry":{"type":"Point","coordinates":[9.00542465540842,46.593261993654274]},"properties":{"name":"Capanna Motterascio CAS","ele":2172,"sac_id":"2147000183"}},{"type":"Feature","geometry":{"type":"Point","coordinates":[7.65353503636679,46.05996397824706]},"properties":{"name":"Cabane du Mountet CAS","ele":2886,"sac_id":"2147000184"}},{"type":"Feature","geometry":{"type":"Point","coordinates":[7.816325534276774,46.48710246892315]},"properties":{"name":"Mutthornhütte SAC","ele":2788,"sac_id":"2147000187"}},{"type":"Feature","geometry":{"type":"Point","coordinates":[9.018755808210301,46.85741783755501]},"properties":{"name":"Muttseehütte SAC","ele":2501,"sac_id":"2147000188"}},{"type":"Feature","geometry":{"type":"Point","coordinates":[7.066874500998973,45.94881539841648]},"properties":{"name":"Cabane de l'A Neuve CAS","ele":2735,"sac_id":"2147000190"}},{"type":"Feature","geometry":{"type":"Point","coordinates":[8.173186949848219,46.52601885413245]},"properties":{"name":"Oberaarjochhütte SAC","ele":3258,"sac_id":"2147000192"}},{"type":"Feature","geometry":{"type":"Point","coordinates":[7.97379492068671,46.42492110153358]},"properties":{"name":"Oberaletschhütte SAC","ele":2640,"sac_id":"2147000193"}},{"type":"Feature","geometry":{"type":"Point","coordinates":[7.062769183835862,46.00187524106227]},"properties":{"name":"Cabane d'Orny CAS","ele":2826,"sac_id":"2147000195"}},{"type":"Feature","geometry":{"type":"Point","coordinates":[8.471422475232558,46.49439983058097]},"properties":{"name":"Capanna Piansecco CAS","ele":1988,"sac_id":"2147000204"}},{"type":"Feature","geometry":{"type":"Point","coordinates":[8.88043259406008,46.82001912090779]},"properties":{"name":"Planurahütte SAC","ele":2947,"sac_id":"2147000207"}},{"type":"Feature","geometry":{"type":"Point","coordinates":[8.956082164446288,46.77719428015382]},"properties":{"name":"Camona da Punteglias CAS","ele":2311,"sac_id":"2147000213"}},{"type":"Feature","geometry":{"type":"Point","coordinates":[7.134164900252156,46.23022011014256]},"properties":{"name":"Cabane Rambert CAS","ele":2580,"sac_id":"2147000215"}},{"type":"Feature","geometry":{"type":"Point","coordinates":[9.643716043950215,46.73089562006087]},"properties":{"name":"Ramozhütte SAC","ele":2293,"sac_id":"2147000216"}},{"type":"Feature","geometry":{"type":"Point","coordinates":[9.38081288483193,46.86578813109256]},"properties":{"name":"Ringelspitzhütte SAC","ele":1998,"sac_id":"2147000218"}},{"type":"Feature","geometry":{"type":"Point","coordinates":[8.167678877374115,46.65910439495446]},"properties":{"name":"Rosenlauibiwak SAC","ele":2330,"sac_id":"2147000220"}},{"type":"Feature","geometry":{"type":"Point","coordinates":[7.6972833172946435,46.04804322482707]},"properties":{"name":"Rothornhütte SAC","ele":3180,"sac_id":"2147000222"}},{"type":"Feature","geometry":{"type":"Point","coordinates":[8.484445724651952,46.544858481261635]},"properties":{"name":"Rotondohütte SAC","ele":2570,"sac_id":"2147000223"}},{"type":"Feature","geometry":{"type":"Point","coordinates":[7.944712595673245,46.52605025111543]},"properties":{"name":"Rottalhütte SAC","ele":2755,"sac_id":"2147000226"}},{"type":"Feature","geometry":{"type":"Point","coordinates":[8.462804163856745,46.84621373565792]},"properties":{"name":"Rugghubelhütte SAC","ele":2296,"sac_id":"2147000228"}},{"type":"Feature","geometry":{"type":"Point","coordinates":[8.55191625087049,46.67651093550099]},"properties":{"name":"Salbithütte SAC","ele":2105,"sac_id":"2147000229"}},{"type":"Feature","geometry":{"type":"Point","coordinates":[8.523676633711741,46.67615346550415]},"properties":{"name":"Salbitschijenbiwak SAC","ele":2400,"sac_id":"2147000230"}},{"type":"Feature","geometry":{"type":"Point","coordinates":[7.0702992893457175,45.97635292219492]},"properties":{"name":"Cabane de Saleinaz CAS","ele":2691,"sac_id":"2147000232"}},{"type":"Feature","geometry":{"type":"Point","coordinates":[10.118605771859466,46.3969632147706]},"properties":{"name":"Rifugio Saoseo CAS","ele":1985,"sac_id":"2147000233"}},{"type":"Feature","geometry":{"type":"Point","coordinates":[9.275457998180904,46.91548676424398]},"properties":{"name":"Sardonahütte SAC","ele":2158,"sac_id":"2147000234"}},{"type":"Feature","geometry":{"type":"Point","coordinates":[9.58243531132059,46.315321953625734]},"properties":{"name":"Capanna Sasc Furä CAS","ele":1904,"sac_id":"2147000235"}},{"type":"Feature","geometry":{"type":"Point","coordinates":[7.709521741056386,46.09330716285209]},"properties":{"name":"Schalijochbiwak SAC","ele":3786,"sac_id":"2147000238"}},{"type":"Feature","geometry":{"type":"Point","coordinates":[8.098792686635683,46.58170981429064]},"properties":{"name":"Schreckhornhütte SAC","ele":2530,"sac_id":"2147000243"}},{"type":"Feature","geometry":{"type":"Point","coordinates":[7.6290409750928205,46.00198693128992]},"properties":{"name":"Schönbielhütte SAC","ele":2694,"sac_id":"2147000241"}},{"type":"Feature","geometry":{"type":"Point","coordinates":[9.611155400515317,46.31252451108488]},"properties":{"name":"Capanna di Sciora CAS","ele":2118,"sac_id":"2147000245"}},{"type":"Feature","geometry":{"type":"Point","coordinates":[10.009422571490106,46.87390175576642]},"properties":{"name":"Seetalhütte SAC","ele":2065,"sac_id":"2147000246"}},{"type":"Feature","geometry":{"type":"Point","coordinates":[8.521023392834934,46.74659296740357]},"properties":{"name":"Sewenhütte SAC","ele":2150,"sac_id":"2147000247"}},{"type":"Feature","geometry":{"type":"Point","coordinates":[7.933583153141082,46.54899343424075]},"properties":{"name":"Silberhornhütte SAC","ele":2663,"sac_id":"2147000249"}},{"type":"Feature","geometry":{"type":"Point","coordinates":[10.041480028334247,46.85453699707824]},"properties":{"name":"Silvrettahütte SAC","ele":2341,"sac_id":"2147000250"}},{"type":"Feature","geometry":{"type":"Point","coordinates":[7.6630224811168945,45.978626312790674]},"properties":{"name":"Solvaybiwak SAC","ele":4003,"sac_id":"2147000252"}},{"type":"Feature","geometry":{"type":"Point","coordinates":[8.509804368006158,46.799821650045025]},"properties":{"name":"Spannorthütte SAC","ele":1956,"sac_id":"2147000255"}},{"type":"Feature","geometry":{"type":"Point","coordinates":[9.250575139214499,47.034290874528914]},"properties":{"name":"Spitzmeilenhütte SAC","ele":2087,"sac_id":"2147000256"}},{"type":"Feature","geometry":{"type":"Point","coordinates":[7.881070760680219,46.377390644024246]},"properties":{"name":"Stockhornbiwak SAC","ele":2598,"sac_id":"2147000258"}},{"type":"Feature","geometry":{"type":"Point","coordinates":[6.897989167686251,46.13937676424358]},"properties":{"name":"Cabane de Susanfe CAS","ele":2102,"sac_id":"2147000261"}},{"type":"Feature","geometry":{"type":"Point","coordinates":[8.470798589320339,46.75163720747798]},"properties":{"name":"Sustlihütte SAC","ele":2257,"sac_id":"2147000262"}},{"type":"Feature","geometry":{"type":"Point","coordinates":[9.004924315519197,46.63456672857053]},"properties":{"name":"Terrihütte SAC","ele":2170,"sac_id":"2147000267"}},{"type":"Feature","geometry":{"type":"Point","coordinates":[8.414090418610575,46.701955238929145]},"properties":{"name":"Tierberglihütte SAC","ele":2795,"sac_id":"2147000269"}},{"type":"Feature","geometry":{"type":"Point","coordinates":[7.762003872520802,46.156858183793155]},"properties":{"name":"Topalihütte SAC","ele":2674,"sac_id":"2147000271"}},{"type":"Feature","geometry":{"type":"Point","coordinates":[7.679557929191435,46.1301668678345]},"properties":{"name":"Cabane de Tracuit CAS","ele":3256,"sac_id":"2147000273"}},{"type":"Feature","geometry":{"type":"Point","coordinates":[8.649452812899046,46.71861018231522]},"properties":{"name":"Treschhütte SAC","ele":1475,"sac_id":"2147000274"}},{"type":"Feature","geometry":{"type":"Point","coordinates":[7.043682023016817,45.99956079719269]},"properties":{"name":"Cabane du Trient CAS","ele":3170,"sac_id":"2147000275"}},{"type":"Feature","geometry":{"type":"Point","coordinates":[8.37124138736226,46.67408374577898]},"properties":{"name":"Trifthütte SAC","ele":2420,"sac_id":"2147000277"}},{"type":"Feature","geometry":{"type":"Point","coordinates":[9.8800731876109,46.403882407794576]},"properties":{"name":"Chamanna da Tschierva CAS","ele":2583,"sac_id":"2147000279"}},{"type":"Feature","geometry":{"type":"Point","coordinates":[10.132486743561085,46.83055683444099]},"properties":{"name":"Chamonna Tuoi CAS","ele":2250,"sac_id":"2147000280"}},{"type":"Feature","geometry":{"type":"Point","coordinates":[7.699535387800603,46.160140911720326]},"properties":{"name":"Turtmannhütte SAC","ele":2519,"sac_id":"2147000281"}},{"type":"Feature","geometry":{"type":"Point","coordinates":[7.8301158812203075,46.0516638355994]},"properties":{"name":"Täschhütte SAC","ele":2701,"sac_id":"2147000265"}},{"type":"Feature","geometry":{"type":"Point","coordinates":[7.271711165118461,45.93032777070889]},"properties":{"name":"Cabane de Valsorey CAS","ele":3032,"sac_id":"2147000282"}},{"type":"Feature","geometry":{"type":"Point","coordinates":[7.475686527264258,45.98981696255204]},"properties":{"name":"Cabane des Vignettes CAS","ele":3160,"sac_id":"2147000287"}},{"type":"Feature","geometry":{"type":"Point","coordinates":[7.500080284967346,46.34234231196847]},"properties":{"name":"Cabane des Violettes CAS","ele":2209,"sac_id":"2147000288"}},{"type":"Feature","geometry":{"type":"Point","coordinates":[8.487699843179037,46.6905964045599]},"properties":{"name":"Voralphütte SAC","ele":2126,"sac_id":"2147000289"}},{"type":"Feature","geometry":{"type":"Point","coordinates":[7.245461122865891,45.916882369359726]},"properties":{"name":"Cabane du Vélan CAS","ele":2642,"sac_id":"2147000283"}},{"type":"Feature","geometry":{"type":"Point","coordinates":[7.743486089271857,46.08602420486527]},"properties":{"name":"Weisshornhütte SAC","ele":2932,"sac_id":"2147000290"}},{"type":"Feature","geometry":{"type":"Point","coordinates":[7.977794606873469,46.14380076562721]},"properties":{"name":"Weissmieshütte SAC","ele":2726,"sac_id":"2147000291"}},{"type":"Feature","geometry":{"type":"Point","coordinates":[7.387951448905523,46.37922878495835]},"properties":{"name":"Wildhornhütte SAC","ele":2303,"sac_id":"2147000293"}},{"type":"Feature","geometry":{"type":"Point","coordinates":[7.46787614419824,46.38300617985148]},"properties":{"name":"Wildstrubelhütte SAC","ele":2788,"sac_id":"2147000294"}},{"type":"Feature","geometry":{"type":"Point","coordinates":[8.347897492172313,46.69495433696755]},"properties":{"name":"Windegghütte SAC","ele":1886,"sac_id":"2147000295"}},{"type":"Feature","geometry":{"type":"Point","coordinates":[9.09393480906502,46.500053326724284]},"properties":{"name":"Zapporthütte SAC","ele":2276,"sac_id":"2147000298"}}]}
